{
  "norad_id": 60928,
  "name": "STARLINK-11238 [DTC]",
  "history": [
    {
      "epoch": "2026-03-28T17:40:38.739072Z",
      "apogee_km": 360.3844149612023,
      "perigee_km": 359.0951896138522,
      "latitude_deg": 2.627630206033906e-05,
      "longitude_deg": 156.06428476099,
      "height_km": 360.18906694750785,
      "semi_major_axis_km": 6737.8768022875265,
      "eccentricity": 9.567e-05,
      "inclination_deg": 53.1605,
      "raan_deg": 247.3784,
      "arg_perigee_deg": 43.8293,
      "mean_anomaly_deg": 316.2801,
      "mean_motion_rev_day": 15.69705439
    }
  ]
}